IRIDIUM 106             
1 41917U 17003A   25283.25442468  .00000400  00000+0  13565-3 0  9994
2 41917  86.4039 192.9441 0002233  70.4027 289.7410 14.34219815457380
IRIDIUM 103             
1 41918U 17003B   25283.31151217  .00000413  00000+0  14055-3 0  9990
2 41918  86.4038 192.8211 0002667  83.8426 276.3073 14.34218120457415
IRIDIUM 109             
1 41919U 17003C   25283.24807040  .00000329  00000+0  11048-3 0  9990
2 41919  86.4042 192.9026 0002368  85.5100 274.6366 14.34213413457373
IRIDIUM 102             
1 41920U 17003D   25283.21636411  .00000168  00000+0  52876-4 0  9997
2 41920  86.4039 192.8450 0002115  85.1053 275.0384 14.34216737457450
IRIDIUM 105             
1 41921U 17003E   25283.18716802  .00000367  00000+0  12391-3 0  9995
2 41921  86.4022 161.3718 0002306  84.5520 275.5939 14.34227081459306
IRIDIUM 104             
1 41922U 17003F   25283.29882004  .00000405  00000+0  13748-3 0  9996
2 41922  86.4040 192.8494 0002388  90.4871 269.6599 14.34218523457453
IRIDIUM 114             
1 41923U 17003G   25283.16562804  .00000369  00000+0  12466-3 0  9991
2 41923  86.4039 192.8889 0002364  83.1532 276.9933 14.34219933457412
IRIDIUM 108             
1 41924U 17003H   25283.19391656  .00000285  00000+0  94781-4 0  9998
2 41924  86.4017 161.2631 0001897  82.0139 278.1272 14.34219026459274
